#dP2022 11  5  0  0  0.00000000     289 d+D   IGS14 FIT AIUB
## 2234 518400.00000000   300.00000000 59888 0.0000000000000
+  116   G01G02G03G04G05G06G07G08G09G10G11G12G13G14G15G16G17
+        G18G19G20G21G22G23G24G25G26G27G29G30G31G32R01R02R03
+        R04R05R07R08R09R11R12R13R14R15R17R18R19R20R21R24E01
+        E02E03E04E05E07E08E09E10E11E12E13E14E15E18E19E21E24
+        E25E26E27E30E31E33E34E36C06C07C08C09C10C11C12C13C14
+        C16C19C20C21C22C23C24C25C26C27C28C29C30C32C33C34C35
+        C36C37C38C39C40C41C42C43C44C45C46J02J03J04  0  0  0
++         5  5  5  5  5  5  5  5  5  5  5  5  5  5  5  5  5
++         5  5  5  5  5  5  5  5  7  5  5  5  5  5  5  5  5
++         5  5  5  5  5  5  5  5  5  5  5  5  5  6  5  5  5
++         5  5  5  5  5  5  5  5  5  5  5  5  5  5  5  5  5
++         5  5  5  5  5  5  5  5  5  5  5 10  5  5  5  5  5
++         5  5  5  5  5  6  5  5  5  5  5  5  5  5  5  5  5
++         5  5  5  5  5  5  5  5  5  5  5  5  5  5  0  0  0
%c M  cc GPS ccc cccc cccc cccc cccc ccccc ccccc ccccc ccccc
%c cc cc ccc ccc cccc cccc cccc cccc ccccc ccccc ccccc ccccc
%f  1.2500000  1.025000000  0.00000000000  0.000000000000000
%f  0.0000000  0.000000000  0.00000000000  0.000000000000000
%i    0    0    0    0      0      0      0      0         0
%i    0    0    0    0      0      0      0      0         0
/* Center for Orbit Determination in Europe (CODE)                              
/* MGEX orbits and clocks for year-day 2022-3090                                
/* Middle day of a 3-day long-arc multi-GNSS solution                           
/* Systems considered: GPS/GLONASS/Galileo/BeiDou/QZSS                          
/* Product reference - DOI 10.7892/boris.75882.3                                
/* PCV:IGS14      OL/AL:FES2014b NONE     YN ORB:CoN CLK:CoN                    
*  2022 11  5  8 10  0.00000000
PG01  22377.510838  14377.147669   2500.925327    256.499695
PG02 -23535.554888 -11511.521729  -3166.171223   -639.271076
PG03  12272.919644  12604.809831  19808.921433   -370.738527
PG04  20586.781116   3817.849143  16404.986743    -91.818411
PG05  -7052.804861 -22766.591237 -11766.201746   -103.102532
PG06   5289.776653 -14028.605232  21980.037595    510.373982
PG07  21786.133103   2528.964284 -14894.415670    291.085864
PG08  11964.930867  10688.642087 -21263.030757    -92.293204
PG09  24782.166773  -6369.884196   7128.857383   -273.238884
PG10 -11317.453155  19186.195496 -14066.439295    -10.564079
PG11  -6218.857379 -19715.090008  16702.400721    -35.088606
PG12 -11218.059080 -13961.620580  19379.642399   -300.574219
PG13  -3017.096054 -14858.839161 -21974.642459    418.992703
PG14  13234.699447 -17131.824279 -15303.346405    -87.026964
PG15 -13545.855323  -9979.411555 -21044.738878    -15.019781
PG16    688.617169  25260.056344  -7645.411038   -526.837842
PG17  22094.108186 -13391.352895   6758.361369    675.180076
PG18 -20496.773713   -805.046983 -16953.069662    -10.608534
PG19  14436.646616 -15780.971453  15346.207514    233.222113
PG20   -612.873872 -26626.815489   1684.914466    472.648301
PG21  20497.256753  16472.908665  -5331.833740    156.697578
PG22 -11049.040481  16979.050332  17507.722654    358.755009
PG23 -14552.797225   8736.906719 -20399.604302     -1.132900
PG24 -22112.620999 -15006.533320  -2235.999384     71.877394
PG25 -15108.577150  -1692.200803  21485.263842    389.531341
PG26  -3948.249835  25725.894008   4220.493878    234.837203
PG27   -522.817808  16212.742490 -21170.617189    184.709915
PG29 -24966.854644   3035.358153   8622.206666   -564.943452
PG30  14277.677277  -8444.251231 -20696.517634   -536.944952
PG31  -4766.791959  15080.746789  21118.990559   -199.168749
PG32 -19407.270387  15827.249848   8692.113978   -286.013513
PR01  17969.664250 -11255.575575  14169.961686     17.336091
PR02  14982.975459 -20235.217344  -4280.742450    -23.246889
PR03   2727.423424 -16914.079876 -18887.004010     66.704382
PR04 -10562.876909  -4102.810846 -22830.087804    163.748631
PR05 -18214.309705  10759.691019 -14225.348523    102.369362
PR07  -1996.450095  16424.365590  19424.658278     43.740701
PR08  10814.965691   3987.830930  22807.889424    -67.962573
PR09  -2382.496373  18328.136144  17635.988168     85.852591
PR11  13161.057068  17174.683238 -13508.496325     22.096065
PR12  11174.934662  -1240.944889 -22868.779761     22.565587
PR13   3256.996879 -17026.455600 -18727.146894    -28.568117
PR14  -7595.685550 -24227.032873  -2361.202261     24.126732
PR15 -13188.931869 -16468.338102  14355.564902     92.807890
PR17  -8475.776672 -11447.991571  21185.939333    575.324921
PR18 -22073.414494  -8735.870603   9296.324022     50.463105
PR19 -24564.428933  -2827.896839  -6285.802751   -209.874526
PR20 -11551.804511   7125.356313 -21576.947189    -81.598073
PR21  10018.459105  11407.001416 -20482.639179   -347.253810
PR24  10776.179205  -8157.899825  21649.381718    124.554756
PE01 -11549.257663  21802.681044  16352.194962   -560.043427
PE02  11438.920498 -21994.508510 -16186.592342      0.707205
PE03  21011.058723 -18901.776995  -8798.880945   -616.875960
PE04  -3118.773730  19537.829622  22013.138237  -1151.867010
PE05  26966.471692  -7122.521135   9911.657774   -127.681812
PE07 -17146.389720  -8599.898715 -22548.009326   -718.952612
PE08   3110.497345 -19431.586302 -22116.895678   -627.190931
PE09  16916.539118   8598.336624  22708.812644   -718.169986
PE10  16888.027213  20083.140821 -13687.983651   -488.634423
PE11  23950.908756  16982.493709  -3778.932153   1469.941770
PE12   7665.990743  19942.169285 -20489.372950   -260.311097
PE13 -23559.416334 -17310.049556   4656.307052    430.648386
PE14  15964.760919 -14650.056842   9448.888829     47.817123
PE15  -7455.954665 -19820.670488  20691.436092    709.471680
PE18 -16529.601876  21730.368191 -17562.341867   -779.296996
PE19 -22774.196941  17791.195659   6384.214431  -4078.677310
PE21 -16639.385078   3032.087352  24295.324000   -492.833672
PE24  12209.357520  19764.824108 -18335.715537   -930.223262
PE25  16648.685876  -2691.505814 -24316.689608   -591.931637
PE26 -25451.267096  -3968.796863 -14587.803358  -1809.105110
PE27 -12671.002252 -18884.300980  18961.477245   -432.166136
PE30   -648.980132 -29551.045986   1753.454186   -973.369142
PE31   1272.234275  29461.941041  -2502.175749   -507.414488
PE33 -12944.766874  10613.178496 -24406.699360   -455.346741
PE34  12744.441354 -10773.927300  24442.383847    -13.035015
PE36  25685.250295   4670.227957  13953.307313   -456.269359
PC06  -9221.595532  23358.256957  33855.544485      8.247960
PC07 -15707.521908  38483.076804  -7524.424305    257.691292
PC08   -106.305923  34025.679560 -24775.257457    506.962947
PC09   2259.168532  25205.312217  34154.383182   -815.460038
PC10  -9727.401576  38862.124020 -13630.335063     73.126502
PC11 -27500.272268   1942.980332  -4374.135529   -310.463612
PC12 -23193.902917  -8936.554196  12750.362677    288.334571
PC13   6725.999303  37905.908918 -16730.719639    125.256569
PC14 -19502.451110  10013.147815 -17284.930619    626.698897
PC16 -14710.774565  21486.788061  33292.248183    120.914738
PC19  18438.385548 -18493.607394   9836.924102   -918.561476
PC20  17867.401045  -1696.894099  21366.724244    846.149839
PC21  -6461.691193 -17363.831256 -20856.985698   -754.797445
PC22   8389.579641 -25385.505251  -7974.349339   -811.142837
PC23    466.767544  23235.198555  15446.689714   -880.934782
PC24 -19796.346891 -11429.971138  16017.092909   -849.769952
PC25 -12981.086090   9897.023080  22624.874818     20.000286
PC26 -15354.554068 -23273.061536   1570.952895    -31.558394
PC27  16059.313213  13186.273811 -18646.742945     46.595520
PC28  -3870.571387  15709.418867 -22731.039300     32.352255
PC29  22608.366196  -9696.419266  13170.788729     36.267998
PC30  27416.318461   2566.903163  -4586.708275      0.789153
PC32   6527.395890  17412.946070  20814.125091   -730.479808
PC33 -18364.264520  18537.406246  -9908.759043   -918.699169
PC34 -27620.938855  -1839.667440   3449.935372     32.347524
PC35   5118.610516 -15784.161936  22435.443882     74.070054
PC36  13563.305785  -8998.014218 -22644.685215   -865.097022
PC37  14058.796055  24086.397133   -299.133865   -737.228910
PC38  -6654.795797  29907.063634 -28868.800755     35.930914
PC39 -19074.300153  20712.306135  31340.411882     -0.836722
PC40 -23128.346754  35023.964802  -5067.315121     -7.506160
PC41  -8669.762884  25458.834788   7481.244389   -244.043854
PC42 -17485.900115    458.607855 -21710.927577   -605.348440
PC43 -23138.769118   9290.057475 -12519.524646     23.282203
PC44 -16308.275342 -12783.017553  18671.366652    103.936572
PC45   -862.098833 -23383.494669 -15225.647022    -18.607608
PC46  19643.850513   9659.823617 -17282.118067    -11.001903
PJ02 -27481.824933  27124.458581  22107.525737     -0.075402
PJ03 -30347.195931  16279.527409 -19685.531990     -4.067721
PJ04 -23248.935271  33456.763268  -5960.029837    112.566425
EOF
